[{"OBJECT_NAME":"FLOCK 4H-27","OBJECT_ID":"2025-276BS","EPOCH":"2026-04-05T12:20:44.961792","MEAN_MOTION":15.19623627,"ECCENTRICITY":0.00014633,"INCLINATION":97.4197,"RA_OF_ASC_NODE":170.3555,"ARG_OF_PERICENTER":129.1043,"MEAN_ANOMALY":231.0322,"EPHEMERIS_TYPE":0,"CLASSIFICATION_TYPE":"U","NORAD_CAT_ID":66730,"ELEMENT_SET_NO":999,"REV_AT_EPOCH":1939,"BSTAR":0.00032787604,"MEAN_MOTION_DOT":6.919e-5,"MEAN_MOTION_DDOT":0},{"OBJECT_NAME":"FLOCK 4H-28","OBJECT_ID":"2025-276BT","EPOCH":"2026-04-05T11:00:27.198432","MEAN_MOTION":15.18824967,"ECCENTRICITY":0.00029537,"INCLINATION":97.421,"RA_OF_ASC_NODE":170.1425,"ARG_OF_PERICENTER":257.6346,"MEAN_ANOMALY":102.4558,"EPHEMERIS_TYPE":0,"CLASSIFICATION_TYPE":"U","NORAD_CAT_ID":66731,"ELEMENT_SET_NO":999,"REV_AT_EPOCH":1937,"BSTAR":0.00041918961,"MEAN_MOTION_DOT":8.665e-5,"MEAN_MOTION_DDOT":0},{"OBJECT_NAME":"FLOCK 4H-29","OBJECT_ID":"2025-276BU","EPOCH":"2026-04-05T10:45:22.820256","MEAN_MOTION":15.189196,"ECCENTRICITY":0.00017783,"INCLINATION":97.4199,"RA_OF_ASC_NODE":170.1394,"ARG_OF_PERICENTER":275.6209,"MEAN_ANOMALY":84.4822,"EPHEMERIS_TYPE":0,"CLASSIFICATION_TYPE":"U","NORAD_CAT_ID":66732,"ELEMENT_SET_NO":999,"REV_AT_EPOCH":1937,"BSTAR":0.00038847944,"MEAN_MOTION_DOT":8.046e-5,"MEAN_MOTION_DDOT":0},{"OBJECT_NAME":"FLOCK 4H-30","OBJECT_ID":"2025-276BV","EPOCH":"2026-04-05T10:43:14.652768","MEAN_MOTION":15.18995123,"ECCENTRICITY":0.00028781,"INCLINATION":97.426,"RA_OF_ASC_NODE":170.2488,"ARG_OF_PERICENTER":257.3906,"MEAN_ANOMALY":102.7007,"EPHEMERIS_TYPE":0,"CLASSIFICATION_TYPE":"U","NORAD_CAT_ID":66733,"ELEMENT_SET_NO":999,"REV_AT_EPOCH":1937,"BSTAR":0.00041991479,"MEAN_MOTION_DOT":8.723e-5,"MEAN_MOTION_DDOT":0},{"OBJECT_NAME":"FLOCK 4H-31","OBJECT_ID":"2025-276BW","EPOCH":"2026-04-05T10:54:46.903392","MEAN_MOTION":15.18826654,"ECCENTRICITY":0.0002222,"INCLINATION":97.4198,"RA_OF_ASC_NODE":170.1295,"ARG_OF_PERICENTER":268.5796,"MEAN_ANOMALY":91.5184,"EPHEMERIS_TYPE":0,"CLASSIFICATION_TYPE":"U","NORAD_CAT_ID":66734,"ELEMENT_SET_NO":999,"REV_AT_EPOCH":1937,"BSTAR":0.00038941,"MEAN_MOTION_DOT":8.044e-5,"MEAN_MOTION_DDOT":0},{"OBJECT_NAME":"FLOCK 4H-32","OBJECT_ID":"2025-276BX","EPOCH":"2026-04-05T10:48:01.567296","MEAN_MOTION":15.18923434,"ECCENTRICITY":0.00032512,"INCLINATION":97.4251,"RA_OF_ASC_NODE":170.2308,"ARG_OF_PERICENTER":252.5551,"MEAN_ANOMALY":107.5328,"EPHEMERIS_TYPE":0,"CLASSIFICATION_TYPE":"U","NORAD_CAT_ID":66735,"ELEMENT_SET_NO":999,"REV_AT_EPOCH":1937,"BSTAR":0.00039382412,"MEAN_MOTION_DOT":8.159e-5,"MEAN_MOTION_DDOT":0},{"OBJECT_NAME":"FLOCK 4H-33","OBJECT_ID":"2025-276BY","EPOCH":"2026-04-05T13:14:21.651072","MEAN_MOTION":15.20128953,"ECCENTRICITY":0.00027217,"INCLINATION":97.425,"RA_OF_ASC_NODE":170.5495,"ARG_OF_PERICENTER":157.1276,"MEAN_ANOMALY":203.008,"EPHEMERIS_TYPE":0,"CLASSIFICATION_TYPE":"U","NORAD_CAT_ID":66736,"ELEMENT_SET_NO":999,"REV_AT_EPOCH":1940,"BSTAR":0.00043784785,"MEAN_MOTION_DOT":9.403e-5,"MEAN_MOTION_DDOT":0},{"OBJECT_NAME":"FLOCK 4H-34","OBJECT_ID":"2025-276BZ","EPOCH":"2026-04-05T10:39:29.837376","MEAN_MOTION":15.19653907,"ECCENTRICITY":0.00027145,"INCLINATION":97.4266,"RA_OF_ASC_NODE":170.4117,"ARG_OF_PERICENTER":164.3967,"MEAN_ANOMALY":195.7352,"EPHEMERIS_TYPE":0,"CLASSIFICATION_TYPE":"U","NORAD_CAT_ID":66737,"ELEMENT_SET_NO":999,"REV_AT_EPOCH":1863,"BSTAR":0.00034358917,"MEAN_MOTION_DOT":7.261e-5,"MEAN_MOTION_DDOT":0},{"OBJECT_NAME":"FLOCK 4H-35","OBJECT_ID":"2025-276CA","EPOCH":"2026-04-05T05:37:32.355264","MEAN_MOTION":15.19870649,"ECCENTRICITY":0.000258,"INCLINATION":97.4228,"RA_OF_ASC_NODE":170.1689,"ARG_OF_PERICENTER":149.138,"MEAN_ANOMALY":211.0007,"EPHEMERIS_TYPE":0,"CLASSIFICATION_TYPE":"U","NORAD_CAT_ID":66738,"ELEMENT_SET_NO":999,"REV_AT_EPOCH":1864,"BSTAR":0.00039715,"MEAN_MOTION_DOT":8.458e-5,"MEAN_MOTION_DDOT":0},{"OBJECT_NAME":"FLOCK 4H-36","OBJECT_ID":"2025-276CB","EPOCH":"2026-04-05T10:53:54.448224","MEAN_MOTION":15.19618711,"ECCENTRICITY":0.00025028,"INCLINATION":97.4275,"RA_OF_ASC_NODE":170.414,"ARG_OF_PERICENTER":177.101,"MEAN_ANOMALY":183.024,"EPHEMERIS_TYPE":0,"CLASSIFICATION_TYPE":"U","NORAD_CAT_ID":66739,"ELEMENT_SET_NO":999,"REV_AT_EPOCH":1938,"BSTAR":0.00038296778,"MEAN_MOTION_DOT":8.094e-5,"MEAN_MOTION_DDOT":0}]
