FLOCK 4H-27             
1 66730U 25276BS  26095.51440928  .00006919  00000+0  32788-3 0  9994
2 66730  97.4197 170.3555 0001463 129.1043 231.0322 15.19623627 19398
FLOCK 4H-28             
1 66731U 25276BT  26095.45864813  .00008665  00000+0  41919-3 0  9997
2 66731  97.4210 170.1425 0002953 257.6346 102.4558 15.18824967 19376
FLOCK 4H-29             
1 66732U 25276BU  26095.44818079  .00008046  00000+0  38848-3 0  9990
2 66732  97.4199 170.1394 0001778 275.6209  84.4822 15.18919600 19372
FLOCK 4H-30             
1 66733U 25276BV  26095.44669737  .00008723  00000+0  41991-3 0  9991
2 66733  97.4260 170.2488 0002878 257.3906 102.7007 15.18995123 19373
FLOCK 4H-31             
1 66734U 25276BW  26095.45470953  .00008044  00000+0  38941-3 0  9990
2 66734  97.4198 170.1295 0002222 268.5796  91.5184 15.18826654 19376
FLOCK 4H-32             
1 66735U 25276BX  26095.45001814  .00008159  00000+0  39382-3 0  9994
2 66735  97.4251 170.2308 0003251 252.5551 107.5328 15.18923434 19370
FLOCK 4H-33             
1 66736U 25276BY  26095.55163948  .00009403  00000+0  43785-3 0  9998
2 66736  97.4250 170.5495 0002721 157.1276 203.0080 15.20128953 19402
FLOCK 4H-34             
1 66737U 25276BZ  26095.44409534  .00007261  00000+0  34359-3 0  9998
2 66737  97.4266 170.4117 0002714 164.3967 195.7352 15.19653907 18632
FLOCK 4H-35             
1 66738U 25276CA  26095.23440226  .00008458  00000+0  39715-3 0  9999
2 66738  97.4228 170.1689 0002580 149.1380 211.0007 15.19870649 18647
FLOCK 4H-36             
1 66739U 25276CB  26095.45410241  .00008094  00000+0  38297-3 0  9998
2 66739  97.4275 170.4140 0002502 177.1010 183.0240 15.19618711 19389
